[{"OBJECT_NAME":"INNOCUBE (TUSAT-31)","OBJECT_ID":"2025-009H","EPOCH":"2026-03-09T17:29:29.528736","MEAN_MOTION":15.24956202,"ECCENTRICITY":0.00051092,"INCLINATION":97.3947,"RA_OF_ASC_NODE":149.8573,"ARG_OF_PERICENTER":335.5214,"MEAN_ANOMALY":24.578,"EPHEMERIS_TYPE":0,"CLASSIFICATION_TYPE":"U","NORAD_CAT_ID":62616,"ELEMENT_SET_NO":999,"REV_AT_EPOCH":6365,"BSTAR":0.00037462408,"MEAN_MOTION_DOT":9.271e-5,"MEAN_MOTION_DDOT":0},{"OBJECT_NAME":"FENGYUN 1C DEB","OBJECT_ID":"1999-025AZQ","EPOCH":"2026-03-09T07:24:32.374656","MEAN_MOTION":14.90450247,"ECCENTRICITY":0.01635078,"INCLINATION":98.8142,"RA_OF_ASC_NODE":23.899,"ARG_OF_PERICENTER":102.803,"MEAN_ANOMALY":259.1511,"EPHEMERIS_TYPE":0,"CLASSIFICATION_TYPE":"U","NORAD_CAT_ID":30926,"ELEMENT_SET_NO":999,"REV_AT_EPOCH":2056,"BSTAR":0.00046140842,"MEAN_MOTION_DOT":5.728e-5,"MEAN_MOTION_DDOT":0}]
